QZS-1R                  
1 49336U 21096A   24090.45327373 -.00000201  00000+0  00000+0 0  9994
2 49336  35.7813  91.7197 0750999 269.9213 124.2158  1.00286594  8904
